NORAD_CAT_ID,OBJECT_NAME,OBJECT_TYPE,EPOCH,MEAN_MOTION,ECCENTRICITY,INCLINATION,RA_OF_ASC_NODE,ARG_OF_PERICENTER,MEAN_ANOMALY,BSTAR,MEAN_MOTION_DOT,MEAN_MOTION_DDOT,TLE_LINE0,TLE_LINE1,TLE_LINE2,SEMIMAJOR_AXIS,PERIOD,APOGEE,PERIGEE,DECAYED
49159.0,STARLINK-3056,PAYLOAD,2022-11-30 14:50:03,14.98299686,0.0002699,70.0008,67.6701,255.0534,105.0326,0.00049681,5.835e-05,0.0,0 STARLINK-3056,1 49159U 21082AF  22334.61809941  .00005835  00000-0  49681-3 0  9995,2 49159  70.0008  67.6701 0002699 255.0534 105.0326 14.98299686 68061,6950.2869999999975,96.109,574.028,570.276,0.0
49159.0,STARLINK-3056,PAYLOAD,2022-12-01 05:15:15,14.98333311,0.0003265,70.0,66.1542,253.9258,106.1542,9.7925e-05,1.076e-05,0.0,0 STARLINK-3056,1 49159U 21082AF  22335.21892580  .00001076  00000-0  97925-4 0  9991,2 49159  70.0000  66.1542 0003265 253.9258 106.1542 14.98333311 68156,6950.183000000001,96.107,574.317,569.778,0.0
49159.0,STARLINK-3056,PAYLOAD,2022-12-01 16:28:11,14.98332919,0.0003526,70.0008,64.9761,253.4219,106.6553,6.659e-05,7.02e-06,0.0,0 STARLINK-3056,1 49159U 21082AF  22335.68624576  .00000702  00000-0  66590-4 0  9999,2 49159  70.0008  64.9761 0003526 253.4219 106.6553 14.98332919 68223,6950.184,96.107,574.499,569.5980000000002,0.0
49159.0,STARLINK-3056,PAYLOAD,2022-12-01 22:52:43,14.98342036,0.0003424,70.0008,64.3027,248.1179,111.9616,-0.00014557,-1.83e-05,0.0,0 STARLINK-3056,1 49159U 21082AF  22335.95328300 -.00001830  00000-0 -14557-3 0  9995,2 49159  70.0008  64.3027 0003424 248.1179 111.9616 14.98342036 68269,6950.156,96.106,574.4,569.641,0.0
49159.0,STARLINK-3056,PAYLOAD,2022-12-02 16:30:12,14.98334172,0.0003291,69.9994,62.451,251.4125,108.6676,0.00011239,1.248e-05,0.0,0 STARLINK-3056,1 49159U 21082AF  22336.68764299  .00001248  00000-0  11239-3 0  9992,2 49159  69.9994  62.4510 0003291 251.4125 108.6676 14.98334172 68379,6950.18,96.107,574.332,569.758,0.0
49159.0,STARLINK-3056,PAYLOAD,2022-12-02 22:54:45,14.98319514,0.0002806,70.0001,61.7782,266.996,93.0878,0.00026465,3.065e-05,0.0,0 STARLINK-3056,1 49159U 21082AF  22336.95469143  .00003065  00000-0  26465-3 0  9998,2 49159  70.0001  61.7782 0002806 266.9960  93.0878 14.98319514 68412,6950.225,96.108,574.0409999999998,570.14,0.0
49159.0,STARLINK-3056,PAYLOAD,2022-12-03 10:07:40,14.98334557,0.0003377,69.9992,60.5988,252.984,107.0949,0.00013438,1.511e-05,0.0,0 STARLINK-3056,1 49159U 21082AF  22337.42200047  .00001511  00000-0  13438-3 0  9997,2 49159  69.9992  60.5988 0003377 252.9840 107.0949 14.98334557 68485,6950.179,96.107,574.391,569.697,0.0
49159.0,STARLINK-3056,PAYLOAD,2022-12-03 13:19:57,14.98323117,0.0003065,70.0001,60.2634,250.2735,109.8093,2.9681e-05,2.61e-06,0.0,0 STARLINK-3056,1 49159U 21082AF  22337.55553101  .00000261  00000-0  29681-4 0  9992,2 49159  70.0001  60.2634 0003065 250.2735 109.8093 14.98323117 68505,6950.214,96.107,574.2090000000002,569.9490000000002,0.0
49159.0,STARLINK-3056,PAYLOAD,2022-12-03 14:56:05,14.98322283,0.0003362,69.9992,60.094,251.4272,108.6522,-6.053e-06,-1.65e-06,0.0,0 STARLINK-3056,1 49159U 21082AF  22337.62229143 -.00000165  00000-0 -60530-5 0  9990,2 49159  69.9992  60.0940 0003362 251.4272 108.6522 14.98322283 68516,6950.217,96.107,574.418,569.745,0.0
49159.0,STARLINK-3056,PAYLOAD,2022-12-03 18:08:22,14.98323359,0.000325,69.9994,59.7583,252.6185,107.4618,-1.5651e-08,-9.3e-07,0.0,0 STARLINK-3056,1 49159U 21082AF  22337.75581225 -.00000093  00000-0 -15651-7 0  9992,2 49159  69.9994  59.7583 0003250 252.6185 107.4618 14.98323359 68538,6950.2130000000025,96.107,574.337,569.82,0.0
49159.0,STARLINK-3056,PAYLOAD,2022-12-04 08:33:34,14.98329899,0.0003362,69.9993,58.2422,251.6563,108.4231,2.4877e-06,-6.3e-07,0.0,0 STARLINK-3056,1 49159U 21082AF  22338.35664785 -.00000063  00000-0  24877-5 0  9996,2 49159  69.9993  58.2422 0003362 251.6563 108.4231 14.98329899 68623,6950.193,96.107,574.395,569.722,0.0
49159.0,STARLINK-3056,PAYLOAD,2022-12-04 11:45:50,14.98330117,0.000367,69.9995,57.9059,249.1842,110.8924,6.1659e-05,6.43e-06,0.0,0 STARLINK-3056,1 49159U 21082AF  22338.49016477  .00000643  00000-0  61659-4 0  9991,2 49159  69.9995  57.9059 0003670 249.1842 110.8924 14.98330117 68644,6950.193,96.107,574.6080000000002,569.507,0.0
49159.0,STARLINK-3056,PAYLOAD,2022-12-04 18:10:22,14.98335169,0.0003381,69.9995,57.2326,251.6791,108.4,0.00013384,1.504e-05,0.0,0 STARLINK-3056,1 49159U 21082AF  22338.75720201  .00001504  00000-0  13384-3 0  9995,2 49159  69.9995  57.2326 0003381 251.6791 108.4000 14.98335169 68688,6950.177,96.107,574.3919999999998,569.692,0.0
49159.0,STARLINK-3056,PAYLOAD,2022-12-04 22:58:46,14.98338278,0.0003372,69.9995,56.7275,251.4711,108.6082,0.00016695,1.9e-05,0.0,0 STARLINK-3056,1 49159U 21082AF  22338.95747927  .00001900  00000-0  16695-3 0  9999,2 49159  69.9995  56.7275 0003372 251.4711 108.6082 14.98338278 68715,6950.167,96.106,574.376,569.689,0.0
49159.0,STARLINK-3056,PAYLOAD,2022-12-05 05:23:18,14.98342667,0.000338,69.9994,56.0545,251.5561,108.5231,0.00021484,2.472e-05,0.0,0 STARLINK-3056,1 49159U 21082AF  22339.22451544  .00002472  00000-0  21484-3 0  9994,2 49159  69.9994  56.0545 0003380 251.5561 108.5231 14.98342667 68756,6950.154,96.106,574.368,569.67,0.0
49159.0,STARLINK-3056,PAYLOAD,2022-12-05 06:59:26,14.98342677,0.0003333,70.001,55.8861,251.9115,108.1681,0.00028844,3.351e-05,0.0,0 STARLINK-3056,1 49159U 21082AF  22339.29127789  .00003351  00000-0  28844-3 0  9996,2 49159  70.0010  55.8861 0003333 251.9115 108.1681 14.98342677 68760,6950.154,96.106,574.335,569.702,0.0
49159.0,STARLINK-3056,PAYLOAD,2022-12-05 23:00:47,14.98340816,0.0003344,70.0017,54.2042,257.5238,102.5547,0.00032305,3.765e-05,0.0,0 STARLINK-3056,1 49159U 21082AF  22339.95887767  .00003765  00000-0  32305-3 0  9994,2 49159  70.0017  54.2042 0003344 257.5238 102.5547 14.98340816 68864,6950.159000000002,96.106,574.349,569.7,0.0
49159.0,STARLINK-3056,PAYLOAD,2022-12-06 08:37:35,14.98337975,0.0003255,70.001,53.1926,251.4313,108.6493,0.00015087,1.708e-05,0.0,0 STARLINK-3056,1 49159U 21082AF  22340.35943777  .00001708  00000-0  15087-3 0  9997,2 49159  70.0010  53.1926 0003255 251.4313 108.6493 14.98337975 68920,6950.168000000002,96.106,574.2959999999998,569.771,0.0
49159.0,STARLINK-3056,PAYLOAD,2022-12-06 16:38:16,14.98325572,0.0003106,70.0011,52.3515,253.9967,106.085,-9.0695e-05,-1.175e-05,0.0,0 STARLINK-3056,1 49159U 21082AF  22340.69324508 -.00001175  00000-0 -90695-4 0  9998,2 49159  70.0011  52.3515 0003106 253.9967 106.0850 14.98325572 68977,6950.206999999999,96.107,574.23,569.913,0.0
49159.0,STARLINK-3056,PAYLOAD,2022-12-07 16:40:17,14.98333198,0.0003278,70.0009,49.8263,252.7228,107.3573,0.00015471,1.754e-05,0.0,0 STARLINK-3056,1 49159U 21082AF  22341.69464259  .00001754  00000-0  15471-3 0  9996,2 49159  70.0009  49.8263 0003278 252.7228 107.3573 14.98333198 69129,6950.183000000001,96.107,574.326,569.77,0.0
49159.0,STARLINK-3056,PAYLOAD,2022-12-08 03:53:13,14.98343974,0.0003106,70.0009,48.6482,252.9513,107.1306,0.00023789,2.748e-05,0.0,0 STARLINK-3056,1 49159U 21082AF  22342.16195685  .00002748  00000-0  23789-3 0  9998,2 49159  70.0009  48.6482 0003106 252.9513 107.1306 14.98343974 69190,6950.15,96.106,574.173,569.856,0.0
49159.0,STARLINK-3056,PAYLOAD,2022-12-08 16:42:17,14.98337161,0.0003198,70.0012,47.3016,253.3006,106.7802,0.00032434,3.78e-05,0.0,0 STARLINK-3056,1 49159U 21082AF  22342.69604057  .00003780  00000-0  32434-3 0  9998,2 49159  70.0012  47.3016 0003198 253.3006 106.7802 14.98337161 69272,6950.170999999999,96.107,574.258,569.813,0.0
49159.0,STARLINK-3056,PAYLOAD,2022-12-08 21:30:41,14.98344454,0.0003278,70.0014,46.797,253.9973,106.0825,0.00051678,6.081e-05,0.0,0 STARLINK-3056,1 49159U 21082AF  22342.89631687  .00006081  00000-0  51678-3 0  9997,2 49159  70.0014  46.7970 0003278 253.9973 106.0825 14.98344454 69309,6950.148,96.106,574.2909999999998,569.735,0.0
49159.0,STARLINK-3056,PAYLOAD,2022-12-09 16:44:18,14.98336358,0.0004149,70.0013,44.7774,252.1271,107.9436,4.4913e-05,4.43e-06,0.0,0 STARLINK-3056,1 49159U 21082AF  22343.69743371  .00000443  00000-0  44913-4 0  9991,2 49159  70.0013  44.7774 0004149 252.1271 107.9436 14.98336358 69423,6950.1730000000025,96.107,574.922,569.155,0.0
49159.0,STARLINK-3056,PAYLOAD,2022-12-10 10:21:47,14.98325735,0.0003031,70.0021,42.9263,247.5199,112.5639,1.2381e-05,5.5e-07,0.0,0 STARLINK-3056,1 49159U 21082AF  22344.43180286  .00000055  00000-0  12381-4 0  9997,2 49159  70.0021  42.9263 0003031 247.5199 112.5639 14.98325735 69537,6950.206,96.107,574.178,569.964,0.0
49159.0,STARLINK-3056,PAYLOAD,2022-12-10 13:34:03,14.98327909,0.000316,70.002,42.5897,248.4475,111.6348,0.00012199,1.363e-05,0.0,0 STARLINK-3056,1 49159U 21082AF  22344.56532168  .00001363  00000-0  12199-3 0  9990,2 49159  70.0020  42.5897 0003160 248.4475 111.6348 14.98327909 69559,6950.199000000001,96.107,574.261,569.868,0.0
49159.0,STARLINK-3056,PAYLOAD,2022-12-10 16:46:19,14.98330968,0.0003353,70.0016,42.2519,254.0641,106.0149,0.00029825,3.468e-05,0.0,0 STARLINK-3056,1 49159U 21082AF  22344.69884179  .00003468  00000-0  29825-3 0  9998,2 49159  70.0016  42.2519 0003353 254.0641 106.0149 14.98330968 69572,6950.19,96.107,574.385,569.724,0.0
49159.0,STARLINK-3056,PAYLOAD,2022-12-11 10:23:48,14.98327481,0.0003326,70.0007,40.4004,254.7439,105.3353,0.0002524,2.92e-05,0.0,0 STARLINK-3056,1 49159U 21082AF  22345.43320556  .00002920  00000-0  25240-3 0  9994,2 49159  70.0007  40.4004 0003326 254.7439 105.3353 14.98327481 69680,6950.201,96.107,574.377,569.754,0.0
49159.0,STARLINK-3056,PAYLOAD,2022-12-11 13:36:05,14.98325966,0.0003334,70.0003,40.0641,255.8874,104.1914,0.00020191,2.317e-05,0.0,0 STARLINK-3056,1 49159U 21082AF  22345.56672637  .00002317  00000-0  20191-3 0  9998,2 49159  70.0003  40.0641 0003334 255.8874 104.1914 14.98325966 69702,6950.205,96.107,574.388,569.753,0.0
